STARLINK-2763_new
1 18670C 21044AJ  21326.17674674 -.00003395  00000-0 -22757-3 0  3264
2 18670  53.0519 312.9461 0001732  61.6376 237.2686 15.06387655    19
STARLINK-2763_old
1 28670C 21044AJ  21325.18124831  .00001984  00000-0  13293-3 0  3253
2 28670  53.0515 317.4154 0001781  62.5078 234.7670 15.06397633    19
